CCSDS_OEM_VERS  = 1.0
CREATION_DATE  = 2024-06-04T20:04:05.184806
ORIGINATOR     = aidenkriel
 
COMMENT
COMMENT Source SPK file:  OREX_20160904_M45_complete.bsp
COMMENT
COMMENT
COMMENT Comments from source SPK file:
COMMENT ************************************************************************
COMMENT ; /home/dwibben15/Development/SPK_gen/launch/output/OREX_20160904_M45_complete.b
COMMENT
COMMENT ; Created 2016-01-07/10:41:20.00.
COMMENT ;
COMMENT ; BEGIN SPKMERGE COMMANDS
COMMENT
COMMENT LEAPSECONDS_KERNEL   = /nav/input/leapsec/naif0011.tls
COMMENT
COMMENT SPK_KERNEL = /home/dwibben15/Development/SPK_gen/launch/output/OREX_20160904_M45_complete.bsp
COMMENT SOURCE_SPK_KERNEL = /home/dwibben15/Development/SPK_gen/launch/Atlas5_SPARTA_OREX_PGAA2_NOM_20160904_M45_GSFC.bsp
COMMENT     INCLUDE_COMMENTS = NO
COMMENT     BODIES           = -64
COMMENT     BEGIN_TIME       = 2016 SEP 03 23:49:16.000
COMMENT     END_TIME         = 2016 SEP 04 00:15:10.000
COMMENT SOURCE_SPK_KERNEL = /home/dwibben15/Development/SPK_gen/launch/output/alleph.bsp
COMMENT     INCLUDE_COMMENTS = NO
COMMENT     BODIES           = -64
COMMENT     BEGIN_TIME       = 2016 SEP 04 00:15:10.000
COMMENT     END_TIME         = 2016 SEP 05 11:58:51.817
COMMENT
COMMENT ; END SPKMERGE COMMANDS
COMMENT ************************************************************************
COMMENT End of comments from source SPK file
COMMENT
COMMENT SPK2OEM RUN DATE/TIME: 2024-06-04T15:02:58
COMMENT SPK2OEM SETUP FILE:    settings.input
COMMENT SPK2OEM INPUT FILE:    OREX_20160904_M45_complete.bsp
COMMENT SPK2OEM OUTPUT FILE:   oemoutput.oem
COMMENT SPK2OEM version:       1.0.0 25-FEB-2005
COMMENT
COMMENT SPK2OEM setup file:
COMMENT ************************************************************************
COMMENT \begindata
COMMENT VERSION_NUMBER       = '1.0'
COMMENT ORIGINATOR           = 'aidenkriel'
COMMENT TIME_ZONE            = 'EST'
COMMENT OBJECT_NAME          = 'ORX'
COMMENT INPUT_SPK_FILE       = 'OREX_20160904_M45_complete.bsp'
COMMENT OUTPUT_OEM_FILE      = 'oemoutput.oem'
COMMENT LEAPSECONDS_FILE     = 'naif0011.tls'
COMMENT START_TIME           = '2000-10-20T00:00:00'
COMMENT STOP_TIME            = '2020-10-21T00:00:00'
COMMENT TIME_FORMAT          = 'YYYY-MM-DD  HR:MN:SC.#### ::UTC'
COMMENT STRING_MAPPING       = ( 'J2000',         'EME2000',
COMMENT                          '<object_id>',   '064' )
COMMENT INTERPOLATION_METHOD = 'LAGRANGE'
COMMENT INTERPOLATION_DEGREE = 1
COMMENT SAMPLE_SPACING       = 60
COMMENT BLOCK_INSET          = 0
COMMENT \begintext
COMMENT
COMMENT ************************************************************************
COMMENT
 
META_START
OBJECT_NAME          = OSIRIS-REX
OBJECT_ID            = 064
CENTER_NAME          = EARTH
REF_FRAME            = EME2000
TIME_SYSTEM          = UTC
START_TIME           = 2016-09-03  23:49:15.9999
STOP_TIME            = 2016-09-04  00:15:10.0000
INTERPOLATION        = LAGRANGE
INTERPOLATION_DEGREE = 1
META_STOP
 
2016-09-05  03:05:56.3376     -5.673729989655339E+05   7.825638290825741E+04   1.451502569578627E+04  -5.500194663511140E+00   6.312346036365137E-01   2.081968759546296E-01
2016-09-05  03:06:56.3291     -5.677029618080972E+05   7.829425131791705E+04   1.452751569083284E+04  -5.500121614505511E+00   6.312241642108438E-01   2.081951478990466E-01
2016-09-05  03:07:56.3206     -5.680329202712693E+05   7.833211910188461E+04   1.454000558231525E+04  -5.500048652216319E+00   6.312137430250937E-01   2.081934229131951E-01
2016-09-05  03:08:56.3122     -5.683628743599204E+05   7.836998626121558E+04   1.455249537040508E+04  -5.499975776499567E+00   6.312033400416952E-01   2.081917009921122E-01
2016-09-05  03:09:56.3037     -5.686928240792397E+05   7.840785279700084E+04   1.456498505528607E+04  -5.499902987211494E+00   6.311929552231661E-01   2.081899821308432E-01
2016-09-05  03:10:56.2952     -5.690227694340801E+05   7.844571871029136E+04   1.457747463712920E+04  -5.499830284208723E+00   6.311825885321302E-01   2.081882663244445E-01
2016-09-05  03:11:56.2867     -5.693527104302694E+05   7.848358400224878E+04   1.458996411614242E+04  -5.499757667347965E+00   6.311722399312757E-01   2.081865535679771E-01
2016-09-05  03:12:56.2782     -5.696826470726432E+05   7.852144867391960E+04   1.460245349249613E+04  -5.499685136486459E+00   6.311619093834173E-01   2.081848438565165E-01
2016-09-05  03:13:56.2698     -5.700125793660285E+05   7.855931272634813E+04   1.461494276636047E+04  -5.499612691481746E+00   6.311515968514646E-01   2.081831371851480E-01
2016-09-05  03:14:56.2613     -5.703425073162278E+05   7.859717616068930E+04   1.462743193794247E+04  -5.499540332191462E+00   6.311413022983913E-01   2.081814335489613E-01
2016-09-05  03:15:56.2528     -5.706724309280507E+05   7.863503897798296E+04   1.463992100741167E+04  -5.499468058473759E+00   6.311310256872965E-01   2.081797329430609E-01
2016-09-05  03:16:56.2443     -5.710023502066267E+05   7.867290117930435E+04   1.465240997494971E+04  -5.499395870187024E+00   6.311207669813638E-01   2.081780353625589E-01
2016-09-05  03:17:56.2358     -5.713322651567489E+05   7.871076276568894E+04   1.466489884072553E+04  -5.499323767190019E+00   6.311105261438806E-01   2.081763408025788E-01
2016-09-05  03:18:56.2273     -5.716621757841854E+05   7.874862373828281E+04   1.467738760494502E+04  -5.499251749341595E+00   6.311003031381983E-01   2.081746492582488E-01
2016-09-05  03:19:56.2189     -5.719920820937124E+05   7.878648409811701E+04   1.468987626777653E+04  -5.499179816501117E+00   6.310900979277922E-01   2.081729607247114E-01
2016-09-05  03:20:56.2104     -5.723219840904253E+05   7.882434384625799E+04   1.470236482940054E+04  -5.499107968528183E+00   6.310799104762215E-01   2.081712751971171E-01
2016-09-05  03:21:56.2019     -5.726518817790836E+05   7.886220298373245E+04   1.471485328998482E+04  -5.499036205282759E+00   6.310697407471479E-01   2.081695926706278E-01
2016-09-05  03:22:56.1934     -5.729817751654215E+05   7.890006151167772E+04   1.472734164973409E+04  -5.498964526624901E+00   6.310595887042970E-01   2.081679131404097E-01
2016-09-05  03:23:56.1849     -5.733116642541817E+05   7.893791943111611E+04   1.473982990881554E+04  -5.498892932415177E+00   6.310494543115169E-01   2.081662366016435E-01
2016-09-05  03:24:56.1765     -5.736415490500982E+05   7.897577674306779E+04   1.475231806739609E+04  -5.498821422514450E+00   6.310393375327483E-01   2.081645630495198E-01
2016-09-05  03:25:56.1680     -5.739714295588803E+05   7.901363344866362E+04   1.476480612567958E+04  -5.498749996783672E+00   6.310292383319946E-01   2.081628924792334E-01
2016-09-05  03:26:56.1595     -5.743013057852455E+05   7.905148954891940E+04   1.477729408383234E+04  -5.498678655084301E+00   6.310191566733813E-01   2.081612248859937E-01
2016-09-05  03:27:56.1510     -5.746311777342310E+05   7.908934504488648E+04   1.478978194203283E+04  -5.498607397278023E+00   6.310090925211157E-01   2.081595602650181E-01
2016-09-05  03:28:56.1425     -5.749610454105377E+05   7.912719993757637E+04   1.480226970044680E+04  -5.498536223226889E+00   6.309990458395072E-01   2.081578986115349E-01
2016-09-05  03:29:56.1341     -5.752909088198415E+05   7.916505422811134E+04   1.481475735927696E+04  -5.498465132793032E+00   6.309890165929266E-01   2.081562399207772E-01
2016-09-05  03:30:56.1256     -5.756207679668269E+05   7.920290791749865E+04   1.482724491868850E+04  -5.498394125839091E+00   6.309790047458660E-01   2.081545841879924E-01
2016-09-05  03:31:56.1171     -5.759506228564978E+05   7.924076100678107E+04   1.483973237885871E+04  -5.498323202227930E+00   6.309690102628988E-01   2.081529314084360E-01
2016-09-05  03:32:56.1086     -5.762804734935224E+05   7.927861349696164E+04   1.485221973995222E+04  -5.498252361822773E+00   6.309590331086989E-01   2.081512815773742E-01
2016-09-05  03:33:56.1001     -5.766103198835435E+05   7.931646538915409E+04   1.486470700217060E+04  -5.498181604486923E+00   6.309490732480014E-01   2.081496346900782E-01
2016-09-05  03:34:56.0917     -5.769401620312129E+05   7.935431668435721E+04   1.487719416567789E+04  -5.498110930084191E+00   6.309391306456615E-01   2.081479907418332E-01
2016-09-05  03:35:56.0832     -5.772699999411741E+05   7.939216738356771E+04   1.488968123063785E+04  -5.498040338478675E+00   6.309292052666245E-01   2.081463497279342E-01
2016-09-05  03:36:56.0747     -5.775998336190453E+05   7.943001748789298E+04   1.490216819725121E+04  -5.497969829534549E+00   6.309192970758962E-01   2.081447116436807E-01
2016-09-05  03:37:56.0662     -5.779296630694541E+05   7.946786699832555E+04   1.491465506568117E+04  -5.497899403116492E+00   6.309094060386019E-01   2.081430764843863E-01
2016-09-05  03:38:56.0577     -5.782594882973471E+05   7.950571591589344E+04   1.492714183610305E+04  -5.497829059089396E+00   6.308995321199464E-01   2.081414442453727E-01
2016-09-05  03:39:56.0493     -5.785893093073353E+05   7.954356424158494E+04   1.493962850867951E+04  -5.497758797318514E+00   6.308896752852338E-01   2.081398149219724E-01
2016-09-05  03:40:56.0408     -5.789191261050049E+05   7.958141197649915E+04   1.495211508361013E+04  -5.497688617669175E+00   6.308798354998278E-01   2.081381885095228E-01
2016-09-05  03:41:56.0323     -5.792489386949505E+05   7.961925912162023E+04   1.496460156105699E+04  -5.497618520007201E+00   6.308700127292105E-01   2.081365650033754E-01
2016-09-05  03:42:56.0238     -5.795787470817593E+05   7.965710567793027E+04   1.497708794118191E+04  -5.497548504198704E+00   6.308602069389526E-01   2.081349443988910E-01
2016-09-05  03:43:56.0153     -5.799085512709927E+05   7.969495164652214E+04   1.498957422418363E+04  -5.497478570109869E+00   6.308504180946840E-01   2.081333266914351E-01
2016-09-05  03:44:56.0069     -5.802383512672220E+05   7.973279702837383E+04   1.500206041022341E+04  -5.497408717607372E+00   6.308406461621523E-01   2.081317118763873E-01
